0 COSMOS 2354
1 25365U 98036C   13282.12270552 -.00000029  00000-0 -28484-3 0  1553
2 25365 082.5867 207.7210 0352241 254.2122 224.3360 12.20815210682595
0 COSMOS 2354
1 25365U 98036C   13284.33776829 -.00000013  00000-0 -15686-3 0  1560
2 25365 082.5866 206.4120 0352274 249.5455 239.4052 12.20814736682869
0 COSMOS 2354
1 25365U 98036C   13286.46749832  .00000005  00000-0 -15803-4 0  1573
2 25365 082.5867 205.1533 0352287 245.0543 239.4438 12.20814426683121
0 COSMOS 2354
1 25365U 98036C   13288.83399524  .00000001  00000-0 -53905-4 0  1587
2 25365 082.5868 203.7546 0352398 240.0704 200.0478 12.20814566683412
0 COSMOS 2354
1 25365U 98036C   13291.14195509 -.00000004  00000-0 -89325-4 0  1592
2 25365 082.5866 202.3907 0352488 235.2115 263.3842 12.20814474683693
0 COSMOS 2354
1 25365U 98036C   13293.26912372 -.00000018  00000-0 -20055-3 0  1603
2 25365 082.5864 201.1337 0352521 230.7297 252.1556 12.20814518683950
0 COSMOS 2354
1 25365U 98036C   13295.79403297 -.00000027  00000-0 -27760-3 0  1615
2 25365 082.5861 199.6417 0352617 225.4167 188.9662 12.20814549684263
